0 EKRAN 8
1 13056U 82009A   13282.64942312 -.00000194  00000-0  00000+0 0   367
2 13056 014.7416 345.2642 0028658 207.4059 151.0295 00.99929222 72301
0 EKRAN 8
1 13056U 82009A   13282.65338366  .00000000  00000-0  10000-3 0   388
2 13056 014.7408 345.2620 0028410 207.1059 152.7564 00.99925306 72318
0 EKRAN 8
1 13056U 82009A   13286.87353280 -.00000156  00000-0  00000+0 0   386
2 13056 014.7402 345.2210 0028606 208.3308 229.7493 00.99928663 72342
0 EKRAN 8
1 13056U 82009A   13288.96721125 -.00000134  00000-0  00000+0 0   392
2 13056 014.7396 345.1993 0028497 208.7093 262.5810 00.99928424 72369
0 EKRAN 8
1 13056U 82009A   13292.91614537 -.00000086  00000-0  00000+0 0   408
2 13056 014.7384 345.1585 0028233 209.0743 242.8645 00.99927873 72406
0 EKRAN 8
1 13056U 82009A   13294.99820318 -.00000059  00000-0  00000+0 0   415
2 13056 014.7377 345.1372 0028121 209.0902 271.8820 00.99927766 72425
